{
"type": "FeatureCollection",
"name": "cartescolaire_22",
"crs": { "type": "name", "properties": { "name": "urn:ogc:def:crs:OGC:1.3:CRS84" } },
"features": [
{ "type": "Feature", "properties": { "code_departement": 22.0, "code_rne": "0291102R", "multisecteur": 0.0 }, "geometry": { "type": "MultiPolygon", "coordinates": [ [ [ [ -3.5211941, 48.1981729 ], [ -3.5213029, 48.1974265 ], [ -3.5212804, 48.1972011 ], [ -3.5211424, 48.1968503 ], [ -3.52105, 48.1965295 ], [ -3.5210569, 48.1961707 ], [ -3.5211024, 48.1959596 ], [ -3.521096, 48.1955699 ], [ -3.5210601, 48.1953236 ], [ -3.5209291, 48.1948767 ], [ -3.5207827, 48.1936064 ], [ -3.5207129, 48.1931958 ], [ -3.5205178, 48.1925141 ], [ -3.5203491, 48.192035 ], [ -3.5202775, 48.1918927 ], [ -3.52001, 48.191575199999988 ], [ -3.5199097, 48.1913866 ], [ -3.5197635, 48.1910237 ], [ -3.5197139, 48.1908413 ], [ -3.5197161, 48.1907608 ], [ -3.5195912, 48.1904499 ], [ -3.5195985, 48.1899087 ], [ -3.5194142, 48.1894666 ], [ -3.5197717, 48.1892463 ], [ -3.5203145, 48.1890276 ], [ -3.5221539, 48.1884852 ], [ -3.5223998, 48.188868 ], [ -3.5225086, 48.1889405 ], [ -3.522578, 48.1890098 ], [ -3.5228086, 48.1892805 ], [ -3.5234579, 48.18978 ], [ -3.52373, 48.1899491 ], [ -3.5241878, 48.1899499 ], [ -3.5263837, 48.1902906 ], [ -3.5266661, 48.1904122 ], [ -3.527067, 48.1909777 ], [ -3.5272068, 48.191016 ], [ -3.5280123, 48.19039 ], [ -3.5286161, 48.1903592 ], [ -3.5295905, 48.1906266 ], [ -3.5301145, 48.191096 ], [ -3.5307282, 48.1911559 ], [ -3.531866, 48.1916851 ], [ -3.5319679, 48.1919955 ], [ -3.5324499, 48.1922125 ], [ -3.5327823, 48.192399 ], [ -3.5328714, 48.192432 ], [ -3.5336887, 48.192510399999989 ], [ -3.5343545, 48.1925006 ], [ -3.5346024, 48.1925717 ], [ -3.5346898, 48.1925795 ], [ -3.5348579, 48.1925521 ], [ -3.5350176, 48.1924358 ], [ -3.5351702, 48.192359599999989 ], [ -3.5353018, 48.1923316 ], [ -3.5353908, 48.192342 ], [ -3.535633, 48.1924107 ], [ -3.5360961, 48.1924861 ], [ -3.5362387, 48.1924927 ], [ -3.5365306, 48.1924512 ], [ -3.5367498, 48.192477 ], [ -3.537216, 48.1925883 ], [ -3.5374306, 48.1925981 ], [ -3.5379324, 48.1925829 ], [ -3.5389324, 48.1927739 ], [ -3.539658, 48.1932338 ], [ -3.5400815, 48.1933927 ], [ -3.5410922, 48.1933872 ], [ -3.5414417, 48.193505 ], [ -3.541875, 48.1937536 ], [ -3.5422916, 48.1938677 ], [ -3.5429012, 48.1938826 ], [ -3.5438337, 48.1937911 ], [ -3.5441119, 48.193866899999989 ], [ -3.5443761, 48.1938088 ], [ -3.5448053, 48.1934266 ], [ -3.5453365, 48.1933546 ], [ -3.5455686, 48.1930275 ], [ -3.5462047, 48.1926798 ], [ -3.54644, 48.1926829 ], [ -3.5469289, 48.1927813 ], [ -3.5470664, 48.1927032 ], [ -3.5471357, 48.1926849 ], [ -3.5472409, 48.1926294 ], [ -3.5474151, 48.1926297 ], [ -3.5477668, 48.192602 ], [ -3.5479637, 48.1926543 ], [ -3.5481673, 48.1926727 ], [ -3.5482455, 48.1926503 ], [ -3.5482685, 48.1926075 ], [ -3.5483036, 48.1925965 ], [ -3.5483672, 48.19263 ], [ -3.5484187, 48.1926317 ], [ -3.5485166, 48.1926262 ], [ -3.5485498, 48.1926 ], [ -3.5486105, 48.1926319 ], [ -3.5487255, 48.1926011 ], [ -3.5487861, 48.192632 ], [ -3.5488422, 48.1926163 ], [ -3.5489371, 48.1926191 ], [ -3.5489852, 48.1926372 ], [ -3.5490596, 48.1927035 ], [ -3.5492336, 48.1927778 ], [ -3.5493238, 48.1927863 ], [ -3.5495607, 48.1927587 ], [ -3.5497096, 48.1927071 ], [ -3.5497711, 48.1927994 ], [ -3.5498039, 48.1928138 ], [ -3.549998, 48.1927678 ], [ -3.5501058, 48.1927113 ], [ -3.5501581, 48.1927084 ], [ -3.5503446, 48.1927422 ], [ -3.5505263, 48.1928459 ], [ -3.5505695, 48.1929112 ], [ -3.5506427, 48.1929568 ], [ -3.550729, 48.1929664 ], [ -3.5511913, 48.1929489 ], [ -3.5513534, 48.1929272 ], [ -3.5517319, 48.192778 ], [ -3.5520987, 48.1928506 ], [ -3.55229, 48.1927704 ], [ -3.5526287, 48.1927037 ], [ -3.5527848, 48.1925903 ], [ -3.5529783, 48.1925181 ], [ -3.5532181, 48.1925129 ], [ -3.5534639, 48.1925354 ], [ -3.5535702, 48.1924455 ], [ -3.5537915, 48.1923898 ], [ -3.5542821, 48.1919589 ], [ -3.5548133, 48.191887 ], [ -3.5549377, 48.1917907 ], [ -3.5553976, 48.1916775 ], [ -3.5557177, 48.191526 ], [ -3.556249, 48.1914549 ], [ -3.5563203, 48.191496099999988 ], [ -3.5569298, 48.191511 ], [ -3.5571451, 48.1916353 ], [ -3.5576203, 48.1916558 ], [ -3.5582747, 48.1914885 ], [ -3.5589567, 48.1909575 ], [ -3.5596081, 48.1907452 ], [ -3.560047, 48.1904526 ], [ -3.5606396, 48.190332 ], [ -3.5612183, 48.1900777 ], [ -3.5619772, 48.1896336 ], [ -3.562735, 48.1897765 ], [ -3.5635443, 48.1897802 ], [ -3.5640084, 48.1897119 ], [ -3.5641679, 48.1899296 ], [ -3.5647521, 48.1897201 ], [ -3.5649731, 48.1898893 ], [ -3.5660145, 48.190151799999988 ], [ -3.5664223, 48.1900758 ], [ -3.5663564, 48.1900135 ], [ -3.566296, 48.1899943 ], [ -3.5662413, 48.1899242 ], [ -3.5662715, 48.1898088 ], [ -3.5662542, 48.1897348 ], [ -3.5660271, 48.189343 ], [ -3.5659466, 48.1892391 ], [ -3.5658658, 48.1890675 ], [ -3.5658681, 48.188988 ], [ -3.5659645, 48.1888408 ], [ -3.5659846, 48.1887747 ], [ -3.5659786, 48.1886396 ], [ -3.5659099, 48.1885215 ], [ -3.5657829, 48.1884672 ], [ -3.5657164, 48.1884104 ], [ -3.5656574, 48.1882187 ], [ -3.5656636, 48.1881705 ], [ -3.5657052, 48.1881365 ], [ -3.5658061, 48.1881228 ], [ -3.5658438, 48.1880999 ], [ -3.5657804, 48.1879599 ], [ -3.5658629, 48.1875273 ], [ -3.5656878, 48.1873791 ], [ -3.565657, 48.1873374 ], [ -3.5656633, 48.1873019 ], [ -3.5656966, 48.1872657 ], [ -3.5657395, 48.1872525 ], [ -3.5659313, 48.1872526 ], [ -3.5659503, 48.1872209 ], [ -3.5658781, 48.1871184 ], [ -3.5658878, 48.187088 ], [ -3.5660804, 48.1869861 ], [ -3.566105, 48.1869351 ], [ -3.5660744, 48.186776 ], [ -3.5659219, 48.1865706 ], [ -3.5658946, 48.1864709 ], [ -3.5658152, 48.1863968 ], [ -3.5655335, 48.186270799999988 ], [ -3.5653981, 48.18616 ], [ -3.5651444, 48.1860198 ], [ -3.564889, 48.1859211 ], [ -3.5648361, 48.185832 ], [ -3.5648499, 48.1858131 ], [ -3.5647724, 48.1857218 ], [ -3.5646544, 48.1856742 ], [ -3.5645972, 48.1856268 ], [ -3.5644272, 48.1856173 ], [ -3.5642179, 48.1855197 ], [ -3.5639792, 48.185338 ], [ -3.5638989, 48.1852133 ], [ -3.563799, 48.1851376 ], [ -3.563195, 48.1848959 ], [ -3.5630385, 48.1846148 ], [ -3.5630345, 48.1845717 ], [ -3.5627995, 48.1842678 ], [ -3.5626462, 48.184153599999988 ], [ -3.5625511, 48.1839756 ], [ -3.5624038, 48.183844699999987 ], [ -3.5624087, 48.1837966 ], [ -3.5622579, 48.183638 ], [ -3.562197, 48.183496 ], [ -3.5621223, 48.1833945 ], [ -3.5620763, 48.183361 ], [ -3.5618327, 48.1834323 ], [ -3.5615773, 48.1835395 ], [ -3.5613655, 48.1836597 ], [ -3.5613056, 48.1836016 ], [ -3.5611885, 48.1835395 ], [ -3.5610584, 48.1833734 ], [ -3.561004, 48.1831968 ], [ -3.5609553, 48.1831525 ], [ -3.5609606, 48.1829563 ], [ -3.5608778, 48.1829203 ], [ -3.5608263, 48.1828536 ], [ -3.5608244, 48.1827409 ], [ -3.5607915, 48.1826831 ], [ -3.5608683, 48.1826057 ], [ -3.5608674, 48.1825552 ], [ -3.5607809, 48.1824679 ], [ -3.5608042, 48.1823835 ], [ -3.5607733, 48.1822977 ], [ -3.5604468, 48.1821479 ], [ -3.5602316, 48.182100299999988 ], [ -3.5601017, 48.1820877 ], [ -3.559898, 48.1819148 ], [ -3.5597906, 48.1818657 ], [ -3.5595772, 48.1818216 ], [ -3.5593924, 48.1817037 ], [ -3.5592885, 48.1816824 ], [ -3.559138, 48.1816772 ], [ -3.55892, 48.181726399999988 ], [ -3.5588831, 48.1817122 ], [ -3.5588093, 48.1816404 ], [ -3.55866, 48.1815684 ], [ -3.5585012, 48.1815619 ], [ -3.5584168, 48.181535 ], [ -3.5582652, 48.1814125 ], [ -3.5580767, 48.1812099 ], [ -3.5578474, 48.1811035 ], [ -3.5577588, 48.1810317 ], [ -3.5574439, 48.1806926 ], [ -3.5572594, 48.1806207 ], [ -3.5571784, 48.1805448 ], [ -3.5570564, 48.1804866 ], [ -3.5566493, 48.1803828 ], [ -3.5562496, 48.1801875 ], [ -3.5555846, 48.1799094 ], [ -3.5554595, 48.1799028 ], [ -3.5551089, 48.1800144 ], [ -3.5549702, 48.1800176 ], [ -3.5547862, 48.1799926 ], [ -3.5532774, 48.1801705 ], [ -3.5531383, 48.1800401 ], [ -3.5529945, 48.180067 ], [ -3.5525755, 48.180215 ], [ -3.5523173, 48.1801038 ], [ -3.5522664, 48.1797166 ], [ -3.5499768, 48.17988 ], [ -3.5497988, 48.1798818 ], [ -3.5493923, 48.1798484 ], [ -3.5481216, 48.1803886 ], [ -3.5472198, 48.1805958 ], [ -3.546725, 48.1806775 ], [ -3.5466145, 48.1807116 ], [ -3.546144, 48.1807495 ], [ -3.5456054, 48.1807722 ], [ -3.5432962, 48.180365099999989 ], [ -3.5432446, 48.1802975 ], [ -3.5428316, 48.1801137 ], [ -3.5425156, 48.1799931 ], [ -3.5409932, 48.1794853 ], [ -3.5402521, 48.1793125 ], [ -3.5394487, 48.1791043 ], [ -3.5392133, 48.1790785 ], [ -3.5377319, 48.1790208 ], [ -3.5376692, 48.1790053 ], [ -3.5370203, 48.1790305 ], [ -3.5364523, 48.178979 ], [ -3.5367468, 48.1781753 ], [ -3.5365952, 48.1781178 ], [ -3.5360219, 48.178034 ], [ -3.5339934, 48.1781041 ], [ -3.533339, 48.1781504 ], [ -3.5330423, 48.1782183 ], [ -3.5329372, 48.178383 ], [ -3.5314046, 48.178478 ], [ -3.5311142, 48.1787604 ], [ -3.5309969, 48.1787832 ], [ -3.5300661, 48.1787454 ], [ -3.528455, 48.178534 ], [ -3.5280523, 48.1786394 ], [ -3.5279631, 48.178638899999989 ], [ -3.5279176, 48.1785873 ], [ -3.5277393, 48.1784888 ], [ -3.5274705, 48.178455 ], [ -3.5271111, 48.178474 ], [ -3.5263807, 48.1786264 ], [ -3.5261738, 48.1786451 ], [ -3.5260468, 48.178644 ], [ -3.5257555, 48.1785816 ], [ -3.5255843, 48.1785721 ], [ -3.5254086, 48.1786143 ], [ -3.5241151, 48.178602 ], [ -3.523551, 48.1786251 ], [ -3.5229543, 48.1786798 ], [ -3.5222078, 48.1787889 ], [ -3.5216175, 48.1789064 ], [ -3.5202057, 48.1793232 ], [ -3.5196846, 48.1794324 ], [ -3.5189017, 48.1795534 ], [ -3.5184108, 48.1795787 ], [ -3.5181275, 48.1796134 ], [ -3.5178875, 48.17967 ], [ -3.5173893, 48.1798339 ], [ -3.5165776, 48.1801587 ], [ -3.5161278, 48.1802982 ], [ -3.5159394, 48.1803249 ], [ -3.5154666, 48.1803556 ], [ -3.5145158, 48.1805047 ], [ -3.5139839, 48.1804944 ], [ -3.513826, 48.1805059 ], [ -3.5132597, 48.1805877 ], [ -3.5123645, 48.1806743 ], [ -3.5121409, 48.1807218 ], [ -3.5117238, 48.1808749 ], [ -3.5115301, 48.1809136 ], [ -3.5109899, 48.1809119 ], [ -3.5107628, 48.180975 ], [ -3.5106258, 48.1810466 ], [ -3.510526, 48.1811127 ], [ -3.5104318, 48.1812027 ], [ -3.5103797, 48.1812842 ], [ -3.507832, 48.181118 ], [ -3.5063, 48.1812847 ], [ -3.5060316, 48.181297799999989 ], [ -3.5054692, 48.1812476 ], [ -3.5049263, 48.18118 ], [ -3.5019278, 48.180698199999988 ], [ -3.5016938, 48.1808041 ], [ -3.5005288, 48.1817893 ], [ -3.5000019, 48.182147 ], [ -3.4998848, 48.1822709 ], [ -3.4995204, 48.1825013 ], [ -3.4989151, 48.1825302 ], [ -3.497935, 48.1826728 ], [ -3.4972417, 48.1828094 ], [ -3.4968482, 48.1829467 ], [ -3.4967695, 48.1829438 ], [ -3.4967139, 48.1828647 ], [ -3.4961186, 48.1829968 ], [ -3.4944236, 48.1832763 ], [ -3.4933822, 48.1835242 ], [ -3.4929916, 48.1835972 ], [ -3.4904301, 48.1840101 ], [ -3.4902932, 48.1840167 ], [ -3.4901472, 48.1839823 ], [ -3.4897725, 48.1839434 ], [ -3.48935, 48.1838782 ], [ -3.4888596, 48.1838537 ], [ -3.4882507, 48.1838972 ], [ -3.4876484, 48.184017 ], [ -3.4869117, 48.1841298 ], [ -3.4865632, 48.184205 ], [ -3.4859022, 48.1844075 ], [ -3.4857814, 48.1844133 ], [ -3.4848415, 48.1848713 ], [ -3.4842768, 48.1852084 ], [ -3.4839966, 48.1853457 ], [ -3.4838628, 48.1853883 ], [ -3.4832274, 48.1855235 ], [ -3.482443, 48.1856443 ], [ -3.4817477, 48.1857765 ], [ -3.4812775, 48.1858944 ], [ -3.4810279, 48.185972199999988 ], [ -3.4807057, 48.1860974 ], [ -3.4805022, 48.1861546 ], [ -3.4803246, 48.1861707 ], [ -3.481011, 48.1869329 ], [ -3.481009, 48.188113 ], [ -3.4816465, 48.1886079 ], [ -3.4818949, 48.1888497 ], [ -3.4819922, 48.1891793 ], [ -3.4826065, 48.1898155 ], [ -3.4841795, 48.1912087 ], [ -3.4841928, 48.1921062 ], [ -3.4842782, 48.1928437 ], [ -3.4846594, 48.1941968 ], [ -3.4847805, 48.1945549 ], [ -3.4848389, 48.1948541 ], [ -3.4848267, 48.1951275 ], [ -3.4847641, 48.1954532 ], [ -3.4841403, 48.1964843 ], [ -3.4835862, 48.1966457 ], [ -3.4834103, 48.1967195 ], [ -3.483285, 48.1967986 ], [ -3.4831551, 48.1969502 ], [ -3.4829741, 48.1973339 ], [ -3.4833323, 48.1981701 ], [ -3.4835739, 48.198378 ], [ -3.4835008, 48.198782 ], [ -3.4829289, 48.2003898 ], [ -3.4843153, 48.2026446 ], [ -3.4836076, 48.2031937 ], [ -3.4838233, 48.2036729 ], [ -3.4849948, 48.2041709 ], [ -3.4831453, 48.2053516 ], [ -3.4827886, 48.2055915 ], [ -3.4822413, 48.2060062 ], [ -3.4823843, 48.2062358 ], [ -3.482136, 48.2064237 ], [ -3.4818347, 48.2066858 ], [ -3.4824962, 48.2073527 ], [ -3.4830352, 48.2079569 ], [ -3.4856411, 48.2115684 ], [ -3.4859221, 48.2117777 ], [ -3.4857567, 48.2124197 ], [ -3.4855927, 48.2129524 ], [ -3.4837022, 48.214658 ], [ -3.4838665, 48.2160366 ], [ -3.4838266, 48.2163159 ], [ -3.4837248, 48.2167396 ], [ -3.4837259, 48.2169571 ], [ -3.4838204, 48.2176362 ], [ -3.4839491, 48.2180345 ], [ -3.4846969, 48.2195652 ], [ -3.4858787, 48.2232361 ], [ -3.4873777, 48.226169 ], [ -3.4888213, 48.2264805 ], [ -3.4908093, 48.226319599999989 ], [ -3.4914701, 48.2263753 ], [ -3.4931501, 48.2264778 ], [ -3.4931931, 48.2272429 ], [ -3.4937267, 48.227636 ], [ -3.4939195, 48.2280813 ], [ -3.494195, 48.2282666 ], [ -3.4942235, 48.2283336 ], [ -3.4942128, 48.2284001 ], [ -3.4941766, 48.2284572 ], [ -3.4941008, 48.2285218 ], [ -3.493875, 48.22863 ], [ -3.4939127, 48.2289249 ], [ -3.4938905, 48.2292376 ], [ -3.4938633, 48.2292689 ], [ -3.4938267, 48.229279 ], [ -3.493679, 48.2292754 ], [ -3.4936024, 48.2293122 ], [ -3.4935857, 48.229362699999989 ], [ -3.4936291, 48.2294849 ], [ -3.4935355, 48.2295804 ], [ -3.4935096, 48.2296549 ], [ -3.493695, 48.2297558 ], [ -3.493719, 48.2297969 ], [ -3.493669, 48.2299612 ], [ -3.4936524, 48.230144499999987 ], [ -3.4936122, 48.2302235 ], [ -3.4935145, 48.2303083 ], [ -3.4934339, 48.2304436 ], [ -3.4934269, 48.2304964 ], [ -3.4934565, 48.2305498 ], [ -3.4934193, 48.2306756 ], [ -3.4934913, 48.2307339 ], [ -3.4933916, 48.2309552 ], [ -3.4934973, 48.2310234 ], [ -3.4934707, 48.2310817 ], [ -3.4933937, 48.2311474 ], [ -3.4933861, 48.2311731 ], [ -3.493443, 48.2313062 ], [ -3.4933138, 48.2314199 ], [ -3.4933081, 48.2314608 ], [ -3.4934045, 48.2315747 ], [ -3.4934585, 48.2316728 ], [ -3.4934923, 48.2317929 ], [ -3.4935149, 48.2318232 ], [ -3.493569, 48.2318455 ], [ -3.4935629, 48.2318946 ], [ -3.4936978, 48.2321445 ], [ -3.493703, 48.2321975 ], [ -3.4935892, 48.2324692 ], [ -3.4935817, 48.2325508 ], [ -3.4936013, 48.2326436 ], [ -3.4936612, 48.2327351 ], [ -3.4936964, 48.2330095 ], [ -3.4937754, 48.2331676 ], [ -3.4937822, 48.2332341 ], [ -3.4936914, 48.2334512 ], [ -3.4935049, 48.2336917 ], [ -3.4935177, 48.2337849 ], [ -3.494011, 48.2344312 ], [ -3.4940219, 48.2344866 ], [ -3.4939111, 48.2347608 ], [ -3.4939668, 48.2348399 ], [ -3.494644, 48.2351042 ], [ -3.4947072, 48.2351124 ], [ -3.4948556, 48.2350989 ], [ -3.4949157, 48.2351154 ], [ -3.4950662, 48.2351956 ], [ -3.4951836, 48.2351837 ], [ -3.4953301, 48.2351224 ], [ -3.4953586, 48.2351235 ], [ -3.4954023, 48.235215 ], [ -3.4954487, 48.2352621 ], [ -3.4956214, 48.2352923 ], [ -3.4956699, 48.2353131 ], [ -3.495694, 48.2353994 ], [ -3.4957934, 48.235504 ], [ -3.4958621, 48.2355021 ], [ -3.4958881, 48.2353733 ], [ -3.4959497, 48.235369 ], [ -3.4960979, 48.2355405 ], [ -3.496128, 48.2355542 ], [ -3.4964718, 48.2355479 ], [ -3.496497, 48.2355655 ], [ -3.4964958, 48.235589 ], [ -3.4964424, 48.2356705 ], [ -3.4964691, 48.2357006 ], [ -3.4966204, 48.2357113 ], [ -3.4967406, 48.2356451 ], [ -3.4967783, 48.2356547 ], [ -3.4968044, 48.2357788 ], [ -3.4969188, 48.235807699999988 ], [ -3.4969646, 48.2358503 ], [ -3.496959, 48.2358921 ], [ -3.4968697, 48.2359792 ], [ -3.4968771, 48.2360176 ], [ -3.4970622, 48.2360824 ], [ -3.4970971, 48.2362123 ], [ -3.4973036, 48.2362975 ], [ -3.4973851, 48.2364104 ], [ -3.4976439, 48.2365911 ], [ -3.497627, 48.2366291 ], [ -3.497454, 48.2367388 ], [ -3.4974762, 48.2368089 ], [ -3.4976174, 48.2369131 ], [ -3.497688, 48.2371015 ], [ -3.4976181, 48.2372796 ], [ -3.4975814, 48.2374531 ], [ -3.4974922, 48.237486 ], [ -3.4974419, 48.2375276 ], [ -3.4974645, 48.2375787 ], [ -3.4975766, 48.2376006 ], [ -3.4976239, 48.2376223 ], [ -3.4976689, 48.2376695 ], [ -3.4976853, 48.2377688 ], [ -3.4978169, 48.2379268 ], [ -3.4979271, 48.2381401 ], [ -3.4979324, 48.2382274 ], [ -3.497803, 48.2383067 ], [ -3.4978075, 48.2383426 ], [ -3.4978736, 48.2384292 ], [ -3.497897, 48.2385209 ], [ -3.4979116, 48.2386167 ], [ -3.4978805, 48.238781 ], [ -3.4976235, 48.2389766 ], [ -3.4975663, 48.2391043 ], [ -3.4975413, 48.2392195 ], [ -3.4976816, 48.2393706 ], [ -3.4976731, 48.2394551 ], [ -3.4975662, 48.2394971 ], [ -3.4974043, 48.2396089 ], [ -3.4971187, 48.2398792 ], [ -3.4970924, 48.2399403 ], [ -3.4965893, 48.2402551 ], [ -3.4960184, 48.2405899 ], [ -3.495888, 48.2406395 ], [ -3.4956738, 48.240645 ], [ -3.4956245, 48.2406612 ], [ -3.4956277, 48.2406981 ], [ -3.4957236, 48.2408074 ], [ -3.4956857, 48.2408836 ], [ -3.4957247, 48.2409915 ], [ -3.4957233, 48.2410566 ], [ -3.4956585, 48.2411126 ], [ -3.4957497, 48.2411725 ], [ -3.4957613, 48.2412116 ], [ -3.4957222, 48.2412454 ], [ -3.4956381, 48.2412645 ], [ -3.4956656, 48.2413451 ], [ -3.4957922, 48.2413851 ], [ -3.4958189, 48.2414477 ], [ -3.4958556, 48.241461 ], [ -3.4959182, 48.241442199999987 ], [ -3.4960981, 48.2416075 ], [ -3.4962567, 48.2416881 ], [ -3.4964445, 48.2417536 ], [ -3.4968504, 48.2418333 ], [ -3.4969957, 48.2418939 ], [ -3.4970852, 48.2420605 ], [ -3.4971064, 48.2422426 ], [ -3.4972596, 48.2424003 ], [ -3.497581, 48.2425947 ], [ -3.4977653, 48.2427408 ], [ -3.4979837, 48.2428461 ], [ -3.4980376, 48.2428883 ], [ -3.4980814, 48.2429698 ], [ -3.4981554, 48.2430325 ], [ -3.498633, 48.2434089 ], [ -3.4987881, 48.2435042 ], [ -3.4989421, 48.2439083 ], [ -3.4990681, 48.2439988 ], [ -3.4993247, 48.2441282 ], [ -3.4995042, 48.2442791 ], [ -3.4995419, 48.244343799999989 ], [ -3.499532, 48.2445484 ], [ -3.4995067, 48.24465 ], [ -3.4994455, 48.2447454 ], [ -3.4995611, 48.2448934 ], [ -3.499663, 48.2451379 ], [ -3.4997194, 48.2451348 ], [ -3.4996983, 48.2453364 ], [ -3.4996648, 48.2454592 ], [ -3.4995816, 48.245573 ], [ -3.4993113, 48.2454859 ], [ -3.4992644, 48.2455111 ], [ -3.4992502, 48.2455823 ], [ -3.4993987, 48.2456355 ], [ -3.4994222, 48.2456838 ], [ -3.4993605, 48.2457423 ], [ -3.4991706, 48.2456824 ], [ -3.4991236, 48.2456849 ], [ -3.4990901, 48.2457085 ], [ -3.4991006, 48.2457503 ], [ -3.4991566, 48.2458095 ], [ -3.4992447, 48.2458552 ], [ -3.4992383, 48.2459016 ], [ -3.4991805, 48.2459698 ], [ -3.4991611, 48.2460323 ], [ -3.4991672, 48.2461249 ], [ -3.499104, 48.2462042 ], [ -3.4991062, 48.246233 ], [ -3.4991313, 48.2462831 ], [ -3.4994467, 48.246309 ], [ -3.4995892, 48.2463572 ], [ -3.4996822, 48.2464207 ], [ -3.4996368, 48.2464909 ], [ -3.4996373, 48.2465604 ], [ -3.4997251, 48.246746 ], [ -3.499678, 48.2468461 ], [ -3.4997073, 48.2469519 ], [ -3.499823, 48.2470241 ], [ -3.4999095, 48.247013 ], [ -3.5000755, 48.2470553 ], [ -3.5002797, 48.2472418 ], [ -3.500274, 48.2474696 ], [ -3.5002186, 48.2475458 ], [ -3.5002327, 48.2477039 ], [ -3.5002088, 48.2478389 ], [ -3.5001296, 48.2479741 ], [ -3.4998836, 48.2482369 ], [ -3.4997555, 48.2482728 ], [ -3.4996548, 48.2483659 ], [ -3.4995958, 48.2483692 ], [ -3.4995347, 48.2484222 ], [ -3.4995277, 48.2484858 ], [ -3.49955, 48.248546 ], [ -3.4995314, 48.2485705 ], [ -3.4994722, 48.2485836 ], [ -3.4994194, 48.2485613 ], [ -3.4993617, 48.248652 ], [ -3.4993178, 48.2486689 ], [ -3.4992759, 48.2487127 ], [ -3.4992809, 48.2487748 ], [ -3.4992485, 48.2487973 ], [ -3.4991901, 48.2489043 ], [ -3.4991916, 48.2489602 ], [ -3.4990736, 48.2490227 ], [ -3.4990125, 48.2491082 ], [ -3.4989708, 48.2492189 ], [ -3.4989828, 48.249305799999988 ], [ -3.4990167, 48.2493608 ], [ -3.4989731, 48.249402 ], [ -3.4989048, 48.249395899999989 ], [ -3.4988694, 48.2494159 ], [ -3.4988694, 48.2494601 ], [ -3.4989211, 48.2495502 ], [ -3.4988374, 48.2496605 ], [ -3.4987929, 48.2497595 ], [ -3.4987692, 48.2499947 ], [ -3.4987997, 48.2500995 ], [ -3.4987861, 48.2502519 ], [ -3.4989177, 48.2502889 ], [ -3.4989518, 48.2503349 ], [ -3.4987301, 48.2504554 ], [ -3.4987526, 48.2505057 ], [ -3.4987214, 48.2506365 ], [ -3.4986748, 48.2507302 ], [ -3.4987793, 48.2509195 ], [ -3.4987301, 48.2509475 ], [ -3.4986393, 48.250957 ], [ -3.4986303, 48.2510261 ], [ -3.498651, 48.2510954 ], [ -3.4987457, 48.2511832 ], [ -3.498735, 48.2512063 ], [ -3.4986088, 48.25129 ], [ -3.4986211, 48.2515864 ], [ -3.4986388, 48.2516865 ], [ -3.4987148, 48.2518421 ], [ -3.4987981, 48.2522429 ], [ -3.4988475, 48.2523693 ], [ -3.4988927, 48.2524616 ], [ -3.4989987, 48.2525641 ], [ -3.4990256, 48.2526944 ], [ -3.4990818, 48.2528105 ], [ -3.4991516, 48.25285 ], [ -3.4991658, 48.2529322 ], [ -3.4991275, 48.2530707 ], [ -3.4991854, 48.2531894 ], [ -3.4991288, 48.2532457 ], [ -3.4991882, 48.2533869 ], [ -3.4991639, 48.2534641 ], [ -3.4991214, 48.2535134 ], [ -3.4990536, 48.2535234 ], [ -3.4990409, 48.2535738 ], [ -3.4991525, 48.2537329 ], [ -3.4991515, 48.253834 ], [ -3.4990863, 48.2538755 ], [ -3.4988399, 48.2539713 ], [ -3.4985976, 48.2536623 ], [ -3.4983767, 48.253493 ], [ -3.4980621, 48.2533433 ], [ -3.4977465, 48.2532722 ], [ -3.4974814, 48.2532498 ], [ -3.4972159, 48.2532563 ], [ -3.496611, 48.2533059 ], [ -3.4947589, 48.2534043 ], [ -3.4948088, 48.2536552 ], [ -3.4946923, 48.2537736 ], [ -3.4944099, 48.2538514 ], [ -3.4937736, 48.2539532 ], [ -3.4927625, 48.2540423 ], [ -3.4923963, 48.2540543 ], [ -3.4917565, 48.2538647 ], [ -3.4900448, 48.2542469 ], [ -3.4886123, 48.2546453 ], [ -3.4882393, 48.2547994 ], [ -3.4879017, 48.2544632 ], [ -3.4870017, 48.2548386 ], [ -3.4867297, 48.2550007 ], [ -3.4871632, 48.2552603 ], [ -3.4874632, 48.2557305 ], [ -3.4877217, 48.2560837 ], [ -3.4877741, 48.256234299999988 ], [ -3.4879335, 48.2565623 ], [ -3.4875917, 48.2567291 ], [ -3.4874211, 48.2569461 ], [ -3.4871304, 48.2569567 ], [ -3.4864271, 48.257064 ], [ -3.4856533, 48.2573015 ], [ -3.4842613, 48.2577662 ], [ -3.4838959, 48.2582016 ], [ -3.4835714, 48.2584542 ], [ -3.4836504, 48.258996 ], [ -3.4833965, 48.259251 ], [ -3.4835844, 48.2599088 ], [ -3.4829817, 48.2597794 ], [ -3.4826683, 48.2597271 ], [ -3.4823481, 48.259706799999989 ], [ -3.4819227, 48.2597112 ], [ -3.4815275, 48.2607278 ], [ -3.4812645, 48.2613037 ], [ -3.4814198, 48.261511 ], [ -3.4813665, 48.2621314 ], [ -3.4811629, 48.2622789 ], [ -3.4809694, 48.2622887 ], [ -3.4807081, 48.2622416 ], [ -3.4800365, 48.2629366 ], [ -3.4796838, 48.2632458 ], [ -3.4789264, 48.2639681 ], [ -3.4792808, 48.2645508 ], [ -3.4795734, 48.2655323 ], [ -3.4782706, 48.2656806 ], [ -3.4775053, 48.2658237 ], [ -3.4770831, 48.26592 ], [ -3.4767947, 48.2660044 ], [ -3.4757989, 48.266329 ], [ -3.4747322, 48.2666051 ], [ -3.4734229, 48.2669207 ], [ -3.4732817, 48.2669483 ], [ -3.472725, 48.2670068 ], [ -3.4704867, 48.2673327 ], [ -3.4703828, 48.2673348 ], [ -3.4703113, 48.2673144 ], [ -3.4702283, 48.267254799999989 ], [ -3.4698367, 48.266666 ], [ -3.4697498, 48.2665859 ], [ -3.4696693, 48.266547 ], [ -3.4695406, 48.2665342 ], [ -3.468546, 48.2666266 ], [ -3.4676131, 48.2667482 ], [ -3.4675939, 48.2667682 ], [ -3.4674715, 48.2668065 ], [ -3.4672017, 48.2668556 ], [ -3.4669533, 48.2668701 ], [ -3.4667506, 48.266903799999987 ], [ -3.4662494, 48.2670504 ], [ -3.4658099, 48.267215299999989 ], [ -3.4615682, 48.2689986 ], [ -3.4612695, 48.2690989 ], [ -3.4608525, 48.2692048 ], [ -3.4602463, 48.2692786 ], [ -3.4604757, 48.2700018 ], [ -3.4607194, 48.2700038 ], [ -3.4608917, 48.2700305 ], [ -3.4611, 48.270096699999989 ], [ -3.4615213, 48.2702903 ], [ -3.4619339, 48.2704014 ], [ -3.4621693, 48.2704354 ], [ -3.462652, 48.2704686 ], [ -3.4633767, 48.270445099999989 ], [ -3.4638218, 48.2703919 ], [ -3.4643336, 48.2702762 ], [ -3.4645036, 48.2702624 ], [ -3.4646908, 48.2702666 ], [ -3.4650277, 48.2703014 ], [ -3.466054, 48.270443799999988 ], [ -3.4661429, 48.2707712 ], [ -3.4663749, 48.2711069 ], [ -3.4667115, 48.2715245 ], [ -3.4670189, 48.2718245 ], [ -3.4681671, 48.2726499 ], [ -3.4686874, 48.2732082 ], [ -3.4688514, 48.2736398 ], [ -3.468625, 48.2736901 ], [ -3.4676125, 48.2738584 ], [ -3.4674598, 48.2738704 ], [ -3.4660446, 48.2738658 ], [ -3.465249, 48.2739058 ], [ -3.4647363, 48.2739483 ], [ -3.4645412, 48.273968 ], [ -3.462859, 48.2742326 ], [ -3.4629363, 48.2748513 ], [ -3.4630577, 48.2752445 ], [ -3.4633999, 48.2751789 ], [ -3.4638035, 48.2751947 ], [ -3.4643436, 48.2754188 ], [ -3.4645186, 48.275643 ], [ -3.4635467, 48.2758118 ], [ -3.4635836, 48.2759362 ], [ -3.4642168, 48.2758067 ], [ -3.4645561, 48.2758053 ], [ -3.4646065, 48.275863 ], [ -3.4648174, 48.2759841 ], [ -3.4648763, 48.2760342 ], [ -3.4649693, 48.2761636 ], [ -3.4650854, 48.2764479 ], [ -3.4651966, 48.2765601 ], [ -3.4653378, 48.2766417 ], [ -3.4656686, 48.2767139 ], [ -3.4662176, 48.2767687 ], [ -3.4664653, 48.2768364 ], [ -3.4665741, 48.2768521 ], [ -3.4666066, 48.2768638 ], [ -3.4666218, 48.2769433 ], [ -3.4665075, 48.2769704 ], [ -3.4665107, 48.2769964 ], [ -3.466578, 48.277027 ], [ -3.4668082, 48.2770071 ], [ -3.4668404, 48.2769936 ], [ -3.466827, 48.2769068 ], [ -3.4668632, 48.2768714 ], [ -3.4669631, 48.2768587 ], [ -3.4670267, 48.2768706 ], [ -3.4671858, 48.2769431 ], [ -3.4672803, 48.27703 ], [ -3.4672855, 48.2771056 ], [ -3.467243, 48.2771883 ], [ -3.4672706, 48.2772373 ], [ -3.467361, 48.2772793 ], [ -3.4674831, 48.2773042 ], [ -3.4676515, 48.2772877 ], [ -3.4677842, 48.2772236 ], [ -3.4679999, 48.2772289 ], [ -3.4680467, 48.2771912 ], [ -3.4680584, 48.2770443 ], [ -3.4681517, 48.2770229 ], [ -3.4681994, 48.2770257 ], [ -3.4682549, 48.2770696 ], [ -3.4682341, 48.2772089 ], [ -3.4682756, 48.277249 ], [ -3.4683401, 48.2772455 ], [ -3.4684311, 48.2772053 ], [ -3.4685306, 48.277189 ], [ -3.4686269, 48.2771919 ], [ -3.4687449, 48.277226899999988 ], [ -3.4687822, 48.2772113 ], [ -3.4687986, 48.2771797 ], [ -3.4687699, 48.2770125 ], [ -3.4687932, 48.277004 ], [ -3.4690542, 48.27707 ], [ -3.4690767, 48.2770327 ], [ -3.4690743, 48.2769362 ], [ -3.4691121, 48.2769143 ], [ -3.4694566, 48.2770651 ], [ -3.4695522, 48.2770509 ], [ -3.469681, 48.2769761 ], [ -3.4697594, 48.2769754 ], [ -3.4698953, 48.2770357 ], [ -3.470081, 48.27716 ], [ -3.4702158, 48.277223 ], [ -3.4700918, 48.2775891 ], [ -3.4699371, 48.278244 ], [ -3.4695906, 48.2791874 ], [ -3.4694707, 48.2796643 ], [ -3.4696602, 48.2800169 ], [ -3.4687517, 48.2799547 ], [ -3.4685147, 48.2800065 ], [ -3.4682079, 48.2800197 ], [ -3.4672342, 48.2801083 ], [ -3.4667639, 48.2805737 ], [ -3.4662852, 48.280915 ], [ -3.4660995, 48.2809559 ], [ -3.4657184, 48.280991199999988 ], [ -3.4654718, 48.280976699999989 ], [ -3.464688, 48.2808391 ], [ -3.4644205, 48.2808086 ], [ -3.4615397, 48.2805231 ], [ -3.4610741, 48.2813015 ], [ -3.4609688, 48.2816891 ], [ -3.4609949, 48.2817247 ], [ -3.4609949, 48.2817689 ], [ -3.4608562, 48.281939 ], [ -3.4603142, 48.2824489 ], [ -3.4601027, 48.2826871 ], [ -3.4598151, 48.2827236 ], [ -3.4593413, 48.2823902 ], [ -3.4590244, 48.2820672 ], [ -3.4585972, 48.2816726 ], [ -3.4582821, 48.2809794 ], [ -3.4578447, 48.280821 ], [ -3.4577641, 48.2808362 ], [ -3.4576748, 48.2809576 ], [ -3.457682, 48.2813462 ], [ -3.4575997, 48.2816008 ], [ -3.4574994, 48.2817869 ], [ -3.457476, 48.2819154 ], [ -3.4574145, 48.2819657 ], [ -3.4569831, 48.2819659 ], [ -3.4566289, 48.2820448 ], [ -3.4563141, 48.2820693 ], [ -3.4555752, 48.2820438 ], [ -3.4553471, 48.2819813 ], [ -3.454234, 48.2817948 ], [ -3.4539791, 48.2818665 ], [ -3.4535701, 48.2818844 ], [ -3.4532271, 48.281988 ], [ -3.4531269, 48.2819872 ], [ -3.4530167, 48.2819598 ], [ -3.4528678, 48.2819589 ], [ -3.4528326, 48.2819364 ], [ -3.4526085, 48.2819072 ], [ -3.4523141, 48.2819215 ], [ -3.4521748, 48.2819661 ], [ -3.4520189, 48.2819737 ], [ -3.4511718, 48.2821473 ], [ -3.450635, 48.282424 ], [ -3.4503873, 48.2825874 ], [ -3.4499085, 48.282786 ], [ -3.4494835, 48.2830592 ], [ -3.4493869, 48.2832424 ], [ -3.4492362, 48.2837119 ], [ -3.4490846, 48.2838547 ], [ -3.4489694, 48.2840623 ], [ -3.4489623, 48.284301899999988 ], [ -3.4487934, 48.2847228 ], [ -3.448766, 48.2848958 ], [ -3.4486775, 48.2850785 ], [ -3.4484118, 48.2854053 ], [ -3.4483455, 48.2855263 ], [ -3.4483136, 48.2858395 ], [ -3.4481699, 48.2860135 ], [ -3.4482021, 48.2863204 ], [ -3.4481348, 48.2863783 ], [ -3.4479166, 48.2864408 ], [ -3.4477556, 48.2865398 ], [ -3.4475575, 48.286733 ], [ -3.4475399, 48.2868215 ], [ -3.4474269, 48.2868819 ], [ -3.4472403, 48.2869264 ], [ -3.4469338, 48.2869305 ], [ -3.4463429, 48.286877 ], [ -3.4456938, 48.2869449 ], [ -3.4446389, 48.2885245 ], [ -3.4441944, 48.2891139 ], [ -3.4440104, 48.28929 ], [ -3.4450503, 48.2900051 ], [ -3.4457361, 48.2905012 ], [ -3.4461679, 48.2909777 ], [ -3.4474894, 48.2913299 ], [ -3.4482343, 48.291237699999989 ], [ -3.4490978, 48.2925311 ], [ -3.448609, 48.2926382 ], [ -3.4472274, 48.2930097 ], [ -3.4473147, 48.2933029 ], [ -3.4470228, 48.2933712 ], [ -3.446603, 48.2934446 ], [ -3.445748, 48.2935446 ], [ -3.4458376, 48.2941093 ], [ -3.4461869, 48.2946527 ], [ -3.4465536, 48.2952817 ], [ -3.4463051, 48.2959146 ], [ -3.4461678, 48.296714599999987 ], [ -3.4461741, 48.2972072 ], [ -3.4441605, 48.297402 ], [ -3.444301, 48.2977644 ], [ -3.444394, 48.2979381 ], [ -3.4445117, 48.2980707 ], [ -3.4444283, 48.2981962 ], [ -3.4441695, 48.299076 ], [ -3.4440653, 48.2991973 ], [ -3.4438967, 48.3000072 ], [ -3.4440974, 48.301103 ], [ -3.4441407, 48.3016333 ], [ -3.4447582, 48.3046174 ], [ -3.4449558, 48.3054669 ], [ -3.4448214, 48.3060592 ], [ -3.444413, 48.3064146 ], [ -3.4472578, 48.306485 ], [ -3.4469496, 48.3068954 ], [ -3.4469765, 48.3075891 ], [ -3.4466118, 48.3078374 ], [ -3.4458026, 48.3078373 ], [ -3.4443221, 48.3077041 ], [ -3.4442947, 48.3077896 ], [ -3.4439526, 48.3082551 ], [ -3.4439756, 48.3082665 ], [ -3.4440208, 48.3083588 ], [ -3.4439306, 48.3088485 ], [ -3.443794, 48.3093678 ], [ -3.4434967, 48.3098679 ], [ -3.4432215, 48.3104047 ], [ -3.4427133, 48.3115247 ], [ -3.4424847, 48.3121546 ], [ -3.4424121, 48.3125341 ], [ -3.4421453, 48.3135588 ], [ -3.4421267, 48.3137277 ], [ -3.4420931, 48.3137955 ], [ -3.4419507, 48.3138267 ], [ -3.4420025, 48.3140947 ], [ -3.4420189, 48.3143059 ], [ -3.4420752, 48.3157698 ], [ -3.4429696, 48.3157129 ], [ -3.4434655, 48.3157283 ], [ -3.4440531, 48.3157856 ], [ -3.4443413, 48.3157852 ], [ -3.4457271, 48.315696 ], [ -3.4459674, 48.316452 ], [ -3.445933, 48.3169775 ], [ -3.446826, 48.3170633 ], [ -3.4476316, 48.3170662 ], [ -3.4477813, 48.3175798 ], [ -3.4479839, 48.317919 ], [ -3.4484261, 48.3184889 ], [ -3.4482064, 48.3186733 ], [ -3.4484721, 48.3190957 ], [ -3.4477721, 48.3192034 ], [ -3.4470054, 48.3212945 ], [ -3.4469748, 48.3221158 ], [ -3.4474743, 48.3220714 ], [ -3.44776, 48.3220838 ], [ -3.4485749, 48.3221828 ], [ -3.4491907, 48.3222928 ], [ -3.4497548, 48.322345 ], [ -3.4500124, 48.3224041 ], [ -3.4501452, 48.3224826 ], [ -3.4502049, 48.3226265 ], [ -3.4502481, 48.3229789 ], [ -3.4502085, 48.3231968 ], [ -3.450311, 48.3233591 ], [ -3.4504298, 48.3234555 ], [ -3.4506201, 48.3235498 ], [ -3.4510377, 48.3236877 ], [ -3.4514225, 48.3238563 ], [ -3.4516163, 48.3241228 ], [ -3.4522908, 48.3246331 ], [ -3.4524648, 48.3248483 ], [ -3.4525905, 48.3250563 ], [ -3.45298, 48.325583 ], [ -3.4530679, 48.325747 ], [ -3.4531783, 48.3258971 ], [ -3.4533132, 48.3260143 ], [ -3.4535132, 48.326121699999987 ], [ -3.4537293, 48.3261839 ], [ -3.4538718, 48.326242 ], [ -3.4540714, 48.3263458 ], [ -3.4542124, 48.3264473 ], [ -3.4547269, 48.3266458 ], [ -3.4553057, 48.3268064 ], [ -3.456816, 48.3273431 ], [ -3.4569283, 48.3273208 ], [ -3.4570108, 48.3272865 ], [ -3.4574446, 48.3272591 ], [ -3.4576074, 48.3272069 ], [ -3.4577216, 48.3271113 ], [ -3.4578459, 48.3270431 ], [ -3.4579555, 48.3270543 ], [ -3.4580315, 48.3272316 ], [ -3.4581153, 48.327264 ], [ -3.4581924, 48.3271307 ], [ -3.4582811, 48.3270708 ], [ -3.4584171, 48.3270868 ], [ -3.4585062, 48.3272282 ], [ -3.4586304, 48.3272476 ], [ -3.4591534, 48.3272181 ], [ -3.4594839, 48.3272416 ], [ -3.4600557, 48.327213 ], [ -3.4605039, 48.3273131 ], [ -3.460738, 48.3274221 ], [ -3.4609485, 48.3274828 ], [ -3.4611211, 48.3274662 ], [ -3.461319, 48.3272595 ], [ -3.4614655, 48.3271846 ], [ -3.4618531, 48.3272989 ], [ -3.4623979, 48.3273801 ], [ -3.4626235, 48.3274535 ], [ -3.462678, 48.3275119 ], [ -3.4626427, 48.3276095 ], [ -3.4624739, 48.3276793 ], [ -3.462231, 48.3277404 ], [ -3.4621561, 48.3277806 ], [ -3.4621336, 48.3278838 ], [ -3.462415, 48.3280147 ], [ -3.462594, 48.32805 ], [ -3.4632527, 48.3279355 ], [ -3.4633669, 48.3278516 ], [ -3.4635732, 48.3275695 ], [ -3.4637316, 48.3275364 ], [ -3.464035, 48.327593 ], [ -3.4641996, 48.3276544 ], [ -3.4643252, 48.3277405 ], [ -3.4644426, 48.327781 ], [ -3.4648933, 48.3278249 ], [ -3.4651275, 48.3278248 ], [ -3.4656492, 48.327928 ], [ -3.4659022, 48.3279485 ], [ -3.466068, 48.3280197 ], [ -3.4662343, 48.3281614 ], [ -3.4663034, 48.3282714 ], [ -3.4663351, 48.3283861 ], [ -3.4664544, 48.3284644 ], [ -3.4666801, 48.3285712 ], [ -3.4668808, 48.3285304 ], [ -3.4669962, 48.3286433 ], [ -3.4673259, 48.3288356 ], [ -3.4678073, 48.3292163 ], [ -3.468027, 48.3294724 ], [ -3.4680571, 48.3295845 ], [ -3.4681834, 48.3297527 ], [ -3.4683474, 48.3298972 ], [ -3.468493, 48.3299804 ], [ -3.4685992, 48.3299855 ], [ -3.4687578, 48.330086 ], [ -3.4689754, 48.3302591 ], [ -3.4692336, 48.3305086 ], [ -3.4693199, 48.3307151 ], [ -3.4693237, 48.3308115 ], [ -3.4693534, 48.3308993 ], [ -3.4694999, 48.3311106 ], [ -3.469568, 48.3311466 ], [ -3.4697253, 48.3311813 ], [ -3.4699208, 48.331186 ], [ -3.4700673, 48.3312104 ], [ -3.4702344, 48.3312591 ], [ -3.4703327, 48.3313205 ], [ -3.4704347, 48.3314674 ], [ -3.4704542, 48.3315377 ], [ -3.470569, 48.3316343 ], [ -3.4706354, 48.331646 ], [ -3.4709986, 48.3316379 ], [ -3.4710972, 48.3316912 ], [ -3.4711194, 48.3317721 ], [ -3.4709661, 48.3319015 ], [ -3.4710075, 48.3320617 ], [ -3.4711904, 48.3321067 ], [ -3.4713655, 48.3320664 ], [ -3.4714276, 48.3320323 ], [ -3.4716549, 48.3319648 ], [ -3.4718037, 48.3319422 ], [ -3.4719708, 48.3318807 ], [ -3.4723295, 48.3318141 ], [ -3.4723384, 48.3317766 ], [ -3.4722631, 48.3317149 ], [ -3.4722554, 48.3316747 ], [ -3.4723503, 48.3316207 ], [ -3.4725656, 48.3316207 ], [ -3.4728361, 48.3316627 ], [ -3.4728811, 48.3317207 ], [ -3.472762, 48.3318527 ], [ -3.4728857, 48.3319119 ], [ -3.4730087, 48.3319096 ], [ -3.4731193, 48.3318512 ], [ -3.4731399, 48.3317111 ], [ -3.4731006, 48.3316229 ], [ -3.4731811, 48.3315292 ], [ -3.4732859, 48.33149 ], [ -3.473449, 48.3314838 ], [ -3.4736074, 48.3315058 ], [ -3.4737591, 48.3315616 ], [ -3.4739111, 48.3315533 ], [ -3.4740066, 48.331493 ], [ -3.4741076, 48.3314008 ], [ -3.4743628, 48.3312965 ], [ -3.4745544, 48.3312914 ], [ -3.4747276, 48.3313235 ], [ -3.4749443, 48.3314786 ], [ -3.4750869, 48.3315258 ], [ -3.4751953, 48.3315154 ], [ -3.475335, 48.3314409 ], [ -3.4754751, 48.3313908 ], [ -3.4756148, 48.3314039 ], [ -3.475875, 48.3315269 ], [ -3.4760222, 48.3315793 ], [ -3.4763373, 48.3316198 ], [ -3.4763859, 48.3316632 ], [ -3.4763994, 48.3317726 ], [ -3.4763278, 48.3318614 ], [ -3.4761322, 48.3318892 ], [ -3.4759395, 48.3318853 ], [ -3.4757191, 48.3318442 ], [ -3.4755858, 48.3318497 ], [ -3.4755159, 48.3318977 ], [ -3.4754819, 48.3319845 ], [ -3.4755249, 48.3320697 ], [ -3.4756141, 48.3321677 ], [ -3.4757466, 48.3322209 ], [ -3.4758202, 48.3322909 ], [ -3.475811, 48.3323591 ], [ -3.4757461, 48.3324475 ], [ -3.4757716, 48.3325229 ], [ -3.4758713, 48.3326068 ], [ -3.4761116, 48.3326559 ], [ -3.4763343, 48.33265 ], [ -3.4768192, 48.332729 ], [ -3.4769368, 48.3327054 ], [ -3.4770159, 48.3326217 ], [ -3.4771108, 48.3326119 ], [ -3.4771965, 48.332637 ], [ -3.4772737, 48.3327032 ], [ -3.477347, 48.3328039 ], [ -3.4774692, 48.3328505 ], [ -3.477592, 48.3328474 ], [ -3.4778209, 48.3327716 ], [ -3.4780479, 48.3326138 ], [ -3.4781082, 48.332597899999989 ], [ -3.4783656, 48.33261 ], [ -3.4786175, 48.3325889 ], [ -3.4786733, 48.3326355 ], [ -3.4786235, 48.3327908 ], [ -3.478736, 48.3328036 ], [ -3.4788746, 48.3327527 ], [ -3.478911, 48.3325755 ], [ -3.4790277, 48.3325556 ], [ -3.4791239, 48.3326 ], [ -3.4792084, 48.3326161 ], [ -3.4792373, 48.3326858 ], [ -3.4792353, 48.332866499999987 ], [ -3.4791205, 48.333001 ], [ -3.4791473, 48.3330311 ], [ -3.4792649, 48.3330192 ], [ -3.4794018, 48.3329765 ], [ -3.4794241, 48.3328715 ], [ -3.4794954, 48.3328134 ], [ -3.4796289, 48.3327429 ], [ -3.4796861, 48.3325917 ], [ -3.479653, 48.3325321 ], [ -3.4794682, 48.3324719 ], [ -3.4794559, 48.3324274 ], [ -3.4794977, 48.3323926 ], [ -3.479579, 48.332371 ], [ -3.4798042, 48.3324191 ], [ -3.4798766, 48.3324684 ], [ -3.4799126, 48.3327598 ], [ -3.4798983, 48.3327976 ], [ -3.4797259, 48.3328712 ], [ -3.4797194, 48.3329501 ], [ -3.479773, 48.3330329 ], [ -3.4798766, 48.3330498 ], [ -3.4799723, 48.3330021 ], [ -3.4801077, 48.3328268 ], [ -3.4801759, 48.3328095 ], [ -3.4802365, 48.3328287 ], [ -3.4802906, 48.3328718 ], [ -3.4803253, 48.3329557 ], [ -3.4804542, 48.3329468 ], [ -3.4805183, 48.3329072 ], [ -3.4806242, 48.3327226 ], [ -3.4807019, 48.3327048 ], [ -3.4808141, 48.3327149 ], [ -3.4809648, 48.3328827 ], [ -3.4810448, 48.3329388 ], [ -3.4811643, 48.3329855 ], [ -3.4813381, 48.3329787 ], [ -3.4814035, 48.3329597 ], [ -3.48157, 48.332872 ], [ -3.4815322, 48.3327523 ], [ -3.4815792, 48.3327045 ], [ -3.4818399, 48.3326893 ], [ -3.4819904, 48.3327127 ], [ -3.4822862, 48.333025 ], [ -3.4823569, 48.3331593 ], [ -3.4823568, 48.3332577 ], [ -3.4822633, 48.3333441 ], [ -3.482028, 48.3333245 ], [ -3.4818095, 48.3332543 ], [ -3.4817187, 48.3333306 ], [ -3.4817491, 48.3335221 ], [ -3.4818005, 48.3336204 ], [ -3.4819909, 48.3336714 ], [ -3.482402, 48.3337111 ], [ -3.4828456, 48.3337075 ], [ -3.4830177, 48.333643 ], [ -3.4831535, 48.3336681 ], [ -3.4833764, 48.3338508 ], [ -3.4834998, 48.3338964 ], [ -3.4839459, 48.3338358 ], [ -3.4841026, 48.3338435 ], [ -3.4842763, 48.3342086 ], [ -3.4846184, 48.3347206 ], [ -3.4848119, 48.3348842 ], [ -3.4849845, 48.3350977 ], [ -3.4853969, 48.3353568 ], [ -3.4857582, 48.3359147 ], [ -3.4860891, 48.3362035 ], [ -3.4863124, 48.3363347 ], [ -3.4863998, 48.3364175 ], [ -3.4864867, 48.3366384 ], [ -3.4865448, 48.3366813 ], [ -3.4866346, 48.336707 ], [ -3.4867355, 48.336669 ], [ -3.4868545, 48.3366679 ], [ -3.4869891, 48.3367156 ], [ -3.487108, 48.3367136 ], [ -3.4870981, 48.3369407 ], [ -3.4870152, 48.3373443 ], [ -3.4885895, 48.3376695 ], [ -3.4895364, 48.3377718 ], [ -3.4911853, 48.3379991 ], [ -3.4915177, 48.3380043 ], [ -3.4918317, 48.3380908 ], [ -3.4921401, 48.338231 ], [ -3.4922664, 48.3383432 ], [ -3.4931494, 48.3386296 ], [ -3.4934325, 48.3384552 ], [ -3.4936965, 48.3383341 ], [ -3.4940029, 48.3382279 ], [ -3.49433, 48.3381467 ], [ -3.4947674, 48.3380812 ], [ -3.4947864, 48.3381912 ], [ -3.4948432, 48.3382783 ], [ -3.4950036, 48.338349 ], [ -3.495178, 48.3385443 ], [ -3.4953491, 48.3386134 ], [ -3.4954739, 48.3386373 ], [ -3.4957105, 48.3386342 ], [ -3.4958064, 48.338665 ], [ -3.4958423, 48.338703699999989 ], [ -3.4958589, 48.3387831 ], [ -3.4959567, 48.3388626 ], [ -3.4960002, 48.3389405 ], [ -3.4959967, 48.339152899999988 ], [ -3.4960759, 48.3393011 ], [ -3.4961154, 48.3393134 ], [ -3.4962483, 48.3393043 ], [ -3.4964178, 48.3392624 ], [ -3.4965923, 48.3391842 ], [ -3.4967468, 48.3391414 ], [ -3.4969345, 48.3391374 ], [ -3.4969833, 48.339105 ], [ -3.4969896, 48.339036 ], [ -3.4969041, 48.3389026 ], [ -3.4968997, 48.3387909 ], [ -3.4969353, 48.3387609 ], [ -3.4971318, 48.3386969 ], [ -3.4979218, 48.338592 ], [ -3.4978798, 48.3383506 ], [ -3.4978457, 48.3382938 ], [ -3.4977454, 48.3382054 ], [ -3.4976748, 48.3380838 ], [ -3.4976851, 48.3379262 ], [ -3.4977116, 48.3378995 ], [ -3.4978309, 48.3378026 ], [ -3.4981077, 48.3376646 ], [ -3.4984756, 48.3374422 ], [ -3.4992653, 48.3370512 ], [ -3.4993405, 48.3369802 ], [ -3.4996171, 48.3365895 ], [ -3.4997997, 48.3364458 ], [ -3.5005561, 48.336081 ], [ -3.5011658, 48.3357667 ], [ -3.5013488, 48.3356483 ], [ -3.5014629, 48.3355527 ], [ -3.5015483, 48.3354442 ], [ -3.5016819, 48.3351452 ], [ -3.501732, 48.3349592 ], [ -3.5017655, 48.3346937 ], [ -3.5019134, 48.334378699999988 ], [ -3.5021576, 48.3341639 ], [ -3.5023455, 48.3340416 ], [ -3.5031357, 48.3336768 ], [ -3.5032523, 48.3335467 ], [ -3.5034677, 48.3332414 ], [ -3.5035934, 48.3331081 ], [ -3.5037878, 48.332962 ], [ -3.5040128, 48.3324937 ], [ -3.5040073, 48.3320553 ], [ -3.5040389, 48.3316978 ], [ -3.5040874, 48.331422499999988 ], [ -3.5040951, 48.3312118 ], [ -3.5041795, 48.3307675 ], [ -3.5041298, 48.3305409 ], [ -3.5041655, 48.3303475 ], [ -3.5042762, 48.3300715 ], [ -3.5044798, 48.329923099999988 ], [ -3.5046272, 48.3296703 ], [ -3.50468, 48.3295284 ], [ -3.5048089, 48.329366 ], [ -3.5049247, 48.329263 ], [ -3.5050978, 48.3290314 ], [ -3.5051797, 48.3288509 ], [ -3.5050984, 48.3283697 ], [ -3.505148, 48.3282451 ], [ -3.5052101, 48.3281676 ], [ -3.5055286, 48.3279298 ], [ -3.505584, 48.3278636 ], [ -3.5056544, 48.3276773 ], [ -3.5056662, 48.3274555 ], [ -3.5055481, 48.327267 ], [ -3.5054597, 48.3271879 ], [ -3.5054114, 48.3271039 ], [ -3.5054367, 48.3269472 ], [ -3.5055561, 48.3267745 ], [ -3.5056302, 48.3267389 ], [ -3.5057795, 48.326709 ], [ -3.5059528, 48.3266985 ], [ -3.5063925, 48.3267068 ], [ -3.506531, 48.3266775 ], [ -3.506589, 48.3266536 ], [ -3.5066179, 48.3266141 ], [ -3.5066405, 48.3265234 ], [ -3.5066043, 48.3264171 ], [ -3.5065332, 48.3263235 ], [ -3.506265, 48.3261478 ], [ -3.506242, 48.3259839 ], [ -3.5063115, 48.3258455 ], [ -3.5064508, 48.3257783 ], [ -3.506597, 48.3257242 ], [ -3.5071078, 48.3256184 ], [ -3.5072152, 48.3255565 ], [ -3.5072981, 48.3253732 ], [ -3.5072563, 48.324981 ], [ -3.5073158, 48.3248161 ], [ -3.5076384, 48.3245356 ], [ -3.5076966, 48.324295 ], [ -3.507515, 48.3239105 ], [ -3.5075073, 48.3237945 ], [ -3.5076385, 48.3236292 ], [ -3.507701, 48.3234127 ], [ -3.5077243, 48.323174 ], [ -3.5077889, 48.3229421 ], [ -3.5078573, 48.3228056 ], [ -3.5079759, 48.3226375 ], [ -3.5083635, 48.3222694 ], [ -3.5085636, 48.3221582 ], [ -3.5088479, 48.3221037 ], [ -3.5090759, 48.3219774 ], [ -3.5093357, 48.3216381 ], [ -3.5095034, 48.3214727 ], [ -3.5098763, 48.3212048 ], [ -3.5099844, 48.3211049 ], [ -3.5101436, 48.321035699999989 ], [ -3.5103266, 48.3210048 ], [ -3.5104409, 48.321031 ], [ -3.5106285, 48.3210487 ], [ -3.5109514, 48.3210435 ], [ -3.5113601, 48.3208792 ], [ -3.5114854, 48.3208525 ], [ -3.5118311, 48.3208135 ], [ -3.5119454, 48.3207522 ], [ -3.511993, 48.3206665 ], [ -3.5120069, 48.3205935 ], [ -3.5120023, 48.3203708 ], [ -3.51196, 48.320335199999988 ], [ -3.511542, 48.3201948 ], [ -3.5114256, 48.3201408 ], [ -3.5113401, 48.3200732 ], [ -3.5112946, 48.3200008 ], [ -3.5112971, 48.3199339 ], [ -3.5113446, 48.3198581 ], [ -3.5117535, 48.3195648 ], [ -3.5118663, 48.3194042 ], [ -3.5119402, 48.319345 ], [ -3.5121942, 48.3192326 ], [ -3.5125425, 48.3191159 ], [ -3.5132451, 48.3188325 ], [ -3.5133894, 48.3188065 ], [ -3.5135199, 48.3188002 ], [ -3.514317, 48.3188754 ], [ -3.514685, 48.3189608 ], [ -3.5147795, 48.31897 ], [ -3.5151009, 48.3189089 ], [ -3.515274, 48.3188425 ], [ -3.5154549, 48.3188172 ], [ -3.5157656, 48.3188009 ], [ -3.5159366, 48.3187608 ], [ -3.5160407, 48.3187163 ], [ -3.5161103, 48.3186555 ], [ -3.5162535, 48.3184346 ], [ -3.5162771, 48.3183412 ], [ -3.5163322, 48.3182506 ], [ -3.5165373, 48.3182023 ], [ -3.5168933, 48.3182133 ], [ -3.5169689, 48.3182335 ], [ -3.5170059, 48.3182802 ], [ -3.5170274, 48.3183666 ], [ -3.5170483, 48.3185568 ], [ -3.5171022, 48.3186098 ], [ -3.5178465, 48.318641 ], [ -3.5181232, 48.3186348 ], [ -3.5182687, 48.3186069 ], [ -3.5184847, 48.3184171 ], [ -3.5185166, 48.3183359 ], [ -3.5185356, 48.318064 ], [ -3.5185833, 48.3179901 ], [ -3.5186683, 48.3179222 ], [ -3.5189345, 48.3178208 ], [ -3.5194029, 48.3177011 ], [ -3.519627, 48.3176526 ], [ -3.5203083, 48.3175581 ], [ -3.5210109, 48.3173956 ], [ -3.5214707, 48.3173269 ], [ -3.5219306, 48.3172916 ], [ -3.522996, 48.3171073 ], [ -3.523292, 48.3170711 ], [ -3.5238215, 48.3170518 ], [ -3.5240485, 48.3170266 ], [ -3.5249941, 48.316848 ], [ -3.5252116, 48.316823299999989 ], [ -3.5257874, 48.3168601 ], [ -3.5259212, 48.3168915 ], [ -3.5260403, 48.3169454 ], [ -3.5261791, 48.316973 ], [ -3.5263307, 48.3169628 ], [ -3.5266946, 48.3168741 ], [ -3.5268896, 48.3168091 ], [ -3.5270434, 48.3167392 ], [ -3.5274649, 48.3164605 ], [ -3.5275877, 48.3164248 ], [ -3.5276885, 48.31643 ], [ -3.5277811, 48.3164674 ], [ -3.5279948, 48.3166623 ], [ -3.528121, 48.3166977 ], [ -3.5282488, 48.3166916 ], [ -3.5283898, 48.3166603 ], [ -3.5286442, 48.3165506 ], [ -3.5288991, 48.316402 ], [ -3.5293351, 48.3160546 ], [ -3.5295113, 48.3158391 ], [ -3.5297365, 48.3154068 ], [ -3.5297943, 48.3151969 ], [ -3.5298059, 48.3149308 ], [ -3.5297759, 48.3148855 ], [ -3.5295828, 48.3148023 ], [ -3.5295259, 48.3147359 ], [ -3.5294286, 48.3145192 ], [ -3.5293985, 48.3144189 ], [ -3.5294, 48.3143222 ], [ -3.529442, 48.314235 ], [ -3.5295487, 48.3141461 ], [ -3.5298851, 48.3139893 ], [ -3.5300102, 48.3138957 ], [ -3.5301442, 48.3136888 ], [ -3.5301717, 48.3135835 ], [ -3.5301512, 48.3133309 ], [ -3.5300524, 48.3131242 ], [ -3.5300284, 48.3130398 ], [ -3.530034, 48.312965399999989 ], [ -3.5300777, 48.31287 ], [ -3.5302054, 48.3126996 ], [ -3.5303037, 48.3124233 ], [ -3.5303816, 48.3123097 ], [ -3.530579, 48.3121562 ], [ -3.5307035, 48.3121014 ], [ -3.5309544, 48.3120506 ], [ -3.5310484, 48.312012 ], [ -3.5311371, 48.311942 ], [ -3.5311942, 48.3118351 ], [ -3.5314119, 48.3112452 ], [ -3.5315189, 48.3110389 ], [ -3.531878, 48.3106182 ], [ -3.5319571, 48.3104486 ], [ -3.5320278, 48.3101793 ], [ -3.5320687, 48.3100948 ], [ -3.5321557, 48.3100106 ], [ -3.5322727, 48.3099499 ], [ -3.5325054, 48.309873 ], [ -3.5326709, 48.3097347 ], [ -3.5327297, 48.3096529 ], [ -3.5330414, 48.3090786 ], [ -3.5330564, 48.3089821 ], [ -3.5330327, 48.3087586 ], [ -3.5330501, 48.3086809 ], [ -3.5331246, 48.3085946 ], [ -3.5332885, 48.3083229 ], [ -3.5333822, 48.30825 ], [ -3.533594, 48.3081895 ], [ -3.5337508, 48.308058 ], [ -3.5338939, 48.3078696 ], [ -3.5342096, 48.3076878 ], [ -3.5345244, 48.3075313 ], [ -3.5345701, 48.3074855 ], [ -3.5346154, 48.3074143 ], [ -3.5346065, 48.307125 ], [ -3.5344993, 48.3069703 ], [ -3.5344662, 48.306889 ], [ -3.5344679, 48.306805 ], [ -3.5344991, 48.3067292 ], [ -3.5345764, 48.306687 ], [ -3.5346986, 48.306657699999988 ], [ -3.5350044, 48.3066137 ], [ -3.5354655, 48.3066649 ], [ -3.535611, 48.3066271 ], [ -3.5357503, 48.3065498 ], [ -3.5359731, 48.3063615 ], [ -3.5361022, 48.306300199999988 ], [ -3.5363767, 48.3062118 ], [ -3.5364807, 48.3061447 ], [ -3.5367767, 48.3058584 ], [ -3.5368756, 48.3057075 ], [ -3.5371028, 48.3050747 ], [ -3.537168, 48.3048156 ], [ -3.5371791, 48.3044918 ], [ -3.5372058, 48.3044235 ], [ -3.537267, 48.3043605 ], [ -3.5373713, 48.3042961 ], [ -3.5378885, 48.3040806 ], [ -3.5382098, 48.3039003 ], [ -3.538362, 48.303797 ], [ -3.5384551, 48.3036862 ], [ -3.5385349, 48.303522 ], [ -3.5385867, 48.3032212 ], [ -3.5386954, 48.3029633 ], [ -3.5387884, 48.3026232 ], [ -3.5389005, 48.302349799999988 ], [ -3.5389889, 48.3022555 ], [ -3.5392028, 48.3021037 ], [ -3.5393951, 48.3018547 ], [ -3.5395163, 48.3017307 ], [ -3.5396601, 48.3016243 ], [ -3.5397682, 48.3014928 ], [ -3.5398448, 48.3013143 ], [ -3.5398911, 48.3008603 ], [ -3.5398837, 48.3004093 ], [ -3.5399186, 48.3002657 ], [ -3.5399808, 48.3001241 ], [ -3.540207, 48.2997558 ], [ -3.5403351, 48.299599799999989 ], [ -3.5404687, 48.2994886 ], [ -3.5407211, 48.2993202 ], [ -3.5411, 48.2989291 ], [ -3.5412229, 48.2988834 ], [ -3.5413619, 48.2988694 ], [ -3.5416641, 48.2988843 ], [ -3.5423056, 48.2987873 ], [ -3.5428096, 48.2986294 ], [ -3.5431957, 48.2985574 ], [ -3.5433855, 48.2985063 ], [ -3.5440681, 48.2983917 ], [ -3.5442468, 48.2983926 ], [ -3.5444182, 48.2985411 ], [ -3.5444904, 48.2985669 ], [ -3.5445938, 48.2985711 ], [ -3.5448443, 48.2985401 ], [ -3.5451136, 48.2985622 ], [ -3.5454095, 48.2985259 ], [ -3.5455167, 48.2984848 ], [ -3.5456517, 48.2983951 ], [ -3.5457334, 48.2983671 ], [ -3.5458396, 48.2983612 ], [ -3.5459897, 48.2983719 ], [ -3.5462061, 48.298414 ], [ -3.5468169, 48.2985815 ], [ -3.5469323, 48.2986284 ], [ -3.5471078, 48.2987441 ], [ -3.547334, 48.2988119 ], [ -3.5475851, 48.2989696 ], [ -3.5478627, 48.2991022 ], [ -3.5479931, 48.2991383 ], [ -3.5481436, 48.299151699999989 ], [ -3.5483066, 48.2991462 ], [ -3.5485138, 48.2991149 ], [ -3.5489741, 48.2989539 ], [ -3.5491322, 48.2989307 ], [ -3.5493267, 48.298928 ], [ -3.5495494, 48.2989446 ], [ -3.5502857, 48.2990554 ], [ -3.5506356, 48.2991263 ], [ -3.5518955, 48.299562 ], [ -3.5521177, 48.2995966 ], [ -3.5522412, 48.2995997 ], [ -3.5523517, 48.2994012 ], [ -3.5528164, 48.2982333 ], [ -3.5530985, 48.2974566 ], [ -3.5531884, 48.2971257 ], [ -3.5531844, 48.2970609 ], [ -3.5531482, 48.2970087 ], [ -3.5533918, 48.296759599999987 ], [ -3.5536291, 48.2964169 ], [ -3.5549908, 48.293621 ], [ -3.554872, 48.2935689 ], [ -3.5547602, 48.2934217 ], [ -3.5547001, 48.2933735 ], [ -3.5545592, 48.2933064 ], [ -3.5544619, 48.2931881 ], [ -3.5543919, 48.2931586 ], [ -3.5543013, 48.2931483 ], [ -3.5542291, 48.2931117 ], [ -3.5542212, 48.2930588 ], [ -3.5541728, 48.2929965 ], [ -3.5540735, 48.2929704 ], [ -3.5538872, 48.2929627 ], [ -3.5535713, 48.292871 ], [ -3.5534331, 48.2927821 ], [ -3.5533334, 48.292742499999989 ], [ -3.5532885, 48.2926971 ], [ -3.5532674, 48.2926035 ], [ -3.5532084, 48.2925643 ], [ -3.5530193, 48.2925667 ], [ -3.5529014, 48.2925868 ], [ -3.5526188, 48.2925555 ], [ -3.5523212, 48.2926109 ], [ -3.5521346, 48.2926005 ], [ -3.5518749, 48.2924379 ], [ -3.5516362, 48.2924223 ], [ -3.5510492, 48.2923375 ], [ -3.5509376, 48.2923319 ], [ -3.5505859, 48.292365 ], [ -3.5502705, 48.2923419 ], [ -3.5499818, 48.2923597 ], [ -3.549711, 48.2923034 ], [ -3.5493386, 48.2923114 ], [ -3.5491228, 48.2922954 ], [ -3.5490185, 48.2922723 ], [ -3.5486015, 48.2922918 ], [ -3.5478066, 48.2922537 ], [ -3.5472857, 48.292112 ], [ -3.546888, 48.2920474 ], [ -3.5466547, 48.2920531 ], [ -3.5462374, 48.292125 ], [ -3.5457775, 48.2921577 ], [ -3.5454549, 48.292153 ], [ -3.5453072, 48.2920971 ], [ -3.5450981, 48.2919931 ], [ -3.5449169, 48.2918307 ], [ -3.544734, 48.2917091 ], [ -3.544583, 48.2915613 ], [ -3.5445158, 48.2913691 ], [ -3.544472, 48.2913002 ], [ -3.544008, 48.2908654 ], [ -3.5440195, 48.2908495 ], [ -3.5439745, 48.2907599 ], [ -3.5438318, 48.2902983 ], [ -3.5438067, 48.2902807 ], [ -3.5438988, 48.2894992 ], [ -3.5438686, 48.289463 ], [ -3.5438707, 48.2893391 ], [ -3.543763, 48.2892124 ], [ -3.5436594, 48.2891631 ], [ -3.5436046, 48.2891571 ], [ -3.5435399, 48.2891047 ], [ -3.5432507, 48.2890313 ], [ -3.5423391, 48.2885329 ], [ -3.5418232, 48.2883331 ], [ -3.5415237, 48.2881881 ], [ -3.5412916, 48.2880294 ], [ -3.5411134, 48.2878804 ], [ -3.5406341, 48.2874312 ], [ -3.5401435, 48.287174 ], [ -3.5395598, 48.28694 ], [ -3.5393895, 48.2868871 ], [ -3.5390316, 48.2868157 ], [ -3.5388495, 48.2867978 ], [ -3.5382267, 48.2868269 ], [ -3.538204, 48.2867415 ], [ -3.5381197, 48.2866405 ], [ -3.5379707, 48.2866064 ], [ -3.537794, 48.2866216 ], [ -3.5375191, 48.2866738 ], [ -3.53703, 48.2868417 ], [ -3.5369626, 48.2868437 ], [ -3.5368727, 48.286795399999988 ], [ -3.5367846, 48.2868156 ], [ -3.5366906, 48.2867991 ], [ -3.5366561, 48.2868263 ], [ -3.5365399, 48.2868382 ], [ -3.5364483, 48.2868956 ], [ -3.5362189, 48.2869553 ], [ -3.5358281, 48.2870211 ], [ -3.5356493, 48.2870193 ], [ -3.5353161, 48.2869619 ], [ -3.534473, 48.2868506 ], [ -3.5319193, 48.2869296 ], [ -3.5318282, 48.2869148 ], [ -3.5315646, 48.2869493 ], [ -3.5313078, 48.2869617 ], [ -3.5310721, 48.2869377 ], [ -3.5307605, 48.2868683 ], [ -3.5303505, 48.2868783 ], [ -3.5297989, 48.2868483 ], [ -3.529347, 48.2868805 ], [ -3.5290474, 48.2868863 ], [ -3.5289347, 48.2868717 ], [ -3.5285334, 48.286690799999988 ], [ -3.5282834, 48.286627 ], [ -3.5281345, 48.2865612 ], [ -3.5280085, 48.2864725 ], [ -3.5278623, 48.2864282 ], [ -3.5277432, 48.2864167 ], [ -3.5273774, 48.2864667 ], [ -3.5270637, 48.286457 ], [ -3.5263961, 48.2865056 ], [ -3.5262546, 48.2861505 ], [ -3.5260909, 48.2858887 ], [ -3.526056, 48.2855747 ], [ -3.5249507, 48.2812571 ], [ -3.5248602, 48.2811709 ], [ -3.5245468, 48.2811521 ], [ -3.5238443, 48.2812903 ], [ -3.5229331, 48.2814463 ], [ -3.522497, 48.2815625 ], [ -3.5223398, 48.2815594 ], [ -3.5220004, 48.281626 ], [ -3.5215923, 48.2817163 ], [ -3.5206773, 48.281951 ], [ -3.5202279, 48.2820905 ], [ -3.5198661, 48.2821836 ], [ -3.5195544, 48.2822441 ], [ -3.5192735, 48.2822804 ], [ -3.5189863, 48.282299 ], [ -3.5183542, 48.2822951 ], [ -3.5180397, 48.282279 ], [ -3.5181331, 48.2816789 ], [ -3.5182794, 48.2814081 ], [ -3.5185766, 48.2810017 ], [ -3.5186668, 48.2808125 ], [ -3.5189129, 48.2794592 ], [ -3.5189995, 48.2788269 ], [ -3.5190436, 48.2786692 ], [ -3.5192795, 48.2784666 ], [ -3.5195362, 48.2781807 ], [ -3.5198798, 48.2776028 ], [ -3.5200303, 48.2773878 ], [ -3.5203343, 48.2770252 ], [ -3.5204872, 48.2767748 ], [ -3.5205152, 48.2765864 ], [ -3.5204819, 48.2763174 ], [ -3.5203759, 48.2757897 ], [ -3.5203634, 48.2752423 ], [ -3.5202842, 48.2742319 ], [ -3.5209743, 48.2742245 ], [ -3.5216154, 48.2741918 ], [ -3.5242049, 48.274352 ], [ -3.5251806, 48.2746186 ], [ -3.5256804, 48.2748645 ], [ -3.5258765, 48.2748094 ], [ -3.5259338, 48.274716 ], [ -3.525976, 48.2744888 ], [ -3.5261525, 48.2742543 ], [ -3.5261946, 48.2740271 ], [ -3.5264552, 48.2733374 ], [ -3.5268216, 48.2725082 ], [ -3.5268063, 48.2723736 ], [ -3.5253647, 48.2709574 ], [ -3.5253664, 48.2703713 ], [ -3.5255276, 48.2700031 ], [ -3.5257569, 48.2685486 ], [ -3.5256604, 48.2682831 ], [ -3.5257697, 48.2680522 ], [ -3.5257198, 48.267563 ], [ -3.5246603, 48.26759 ], [ -3.5244975, 48.2675755 ], [ -3.5244174, 48.2675293 ], [ -3.5245382, 48.2669656 ], [ -3.5245194, 48.2668141 ], [ -3.5244237, 48.266554799999987 ], [ -3.5244072, 48.2664438 ], [ -3.5244169, 48.2663259 ], [ -3.5244511, 48.266231 ], [ -3.5247258, 48.2658728 ], [ -3.5247413, 48.2658015 ], [ -3.5247093, 48.26562 ], [ -3.5247481, 48.265463399999987 ], [ -3.5253576, 48.2645675 ], [ -3.5254088, 48.2644347 ], [ -3.5254026, 48.2641452 ], [ -3.5253265, 48.2638804 ], [ -3.5251089, 48.263543 ], [ -3.5249058, 48.2633123 ], [ -3.524809, 48.2631642 ], [ -3.5247941, 48.2630007 ], [ -3.5248237, 48.2629006 ], [ -3.5250729, 48.2626097 ], [ -3.5252155, 48.2624736 ], [ -3.5255595, 48.2622812 ], [ -3.52702, 48.2618908 ], [ -3.5268914, 48.2617047 ], [ -3.5266425, 48.2614313 ], [ -3.5262371, 48.2611062 ], [ -3.5250458, 48.2602548 ], [ -3.524764, 48.2600104 ], [ -3.5244471, 48.259679399999989 ], [ -3.52428, 48.2594765 ], [ -3.5239189, 48.2589529 ], [ -3.5233302, 48.2578362 ], [ -3.5232971, 48.2576782 ], [ -3.523353, 48.2576273 ], [ -3.5233609, 48.2575925 ], [ -3.5232881, 48.2573004 ], [ -3.5228512, 48.2561211 ], [ -3.5228429, 48.2559229 ], [ -3.5229434, 48.2557413 ], [ -3.5229675, 48.2557174 ], [ -3.5230789, 48.2557113 ], [ -3.524076, 48.2567088 ], [ -3.5241439, 48.2567439 ], [ -3.5242401, 48.2567675 ], [ -3.52441, 48.2567526 ], [ -3.5245058, 48.2567076 ], [ -3.5247357, 48.2563374 ], [ -3.5248606, 48.2562113 ], [ -3.5251015, 48.2560273 ], [ -3.5253188, 48.2557959 ], [ -3.5259217, 48.2547487 ], [ -3.5267057, 48.2535271 ], [ -3.5268783, 48.2532296 ], [ -3.5262896, 48.2529958 ], [ -3.5266521, 48.2525613 ], [ -3.5270316, 48.2522749 ], [ -3.5275779, 48.2520795 ], [ -3.5284721, 48.2520408 ], [ -3.5289807, 48.252065 ], [ -3.5292932, 48.2522193 ], [ -3.5298921, 48.2524046 ], [ -3.5304236, 48.2526244 ], [ -3.5305367, 48.2527951 ], [ -3.530601, 48.2530949 ], [ -3.5305191, 48.2532953 ], [ -3.5302056, 48.2537108 ], [ -3.5304214, 48.2541638 ], [ -3.5308892, 48.2549595 ], [ -3.5313749, 48.2556919 ], [ -3.5316751, 48.2558884 ], [ -3.5319522, 48.2559967 ], [ -3.5322813, 48.2560562 ], [ -3.5324389, 48.2560619 ], [ -3.532727, 48.2560306 ], [ -3.5327773, 48.2559781 ], [ -3.5332894, 48.2558775 ], [ -3.5336083, 48.2558761 ], [ -3.5338007, 48.2559233 ], [ -3.5346335, 48.2558798 ], [ -3.5360098, 48.2557377 ], [ -3.5366154, 48.2556175 ], [ -3.5368697, 48.2554553 ], [ -3.536751, 48.2553707 ], [ -3.5367179, 48.255322 ], [ -3.5368309, 48.255285 ], [ -3.5369387, 48.2552276 ], [ -3.5373654, 48.2549078 ], [ -3.5373218, 48.2548615 ], [ -3.5367648, 48.2547091 ], [ -3.5365392, 48.254504 ], [ -3.5367298, 48.254395 ], [ -3.538043, 48.2543872 ], [ -3.5382633, 48.2541908 ], [ -3.5385361, 48.2538841 ], [ -3.5387672, 48.2537205 ], [ -3.5390541, 48.2535484 ], [ -3.5393747, 48.2533871 ], [ -3.5396819, 48.2532373 ], [ -3.540103, 48.2531011 ], [ -3.5402932, 48.2530761 ], [ -3.5407446, 48.2530638 ], [ -3.5407297, 48.2530095 ], [ -3.5407525, 48.252899 ], [ -3.5407436, 48.2528164 ], [ -3.5407038, 48.2527464 ], [ -3.5405262, 48.2526669 ], [ -3.5404262, 48.252602 ], [ -3.5403488, 48.2525232 ], [ -3.54033, 48.252415 ], [ -3.5403167, 48.2523083 ], [ -3.5403588, 48.2520812 ], [ -3.5403368, 48.2519587 ], [ -3.5405447, 48.2516519 ], [ -3.5405409, 48.251458 ], [ -3.5402467, 48.2511141 ], [ -3.5399558, 48.2506012 ], [ -3.5397193, 48.2499272 ], [ -3.5397015, 48.2498388 ], [ -3.539718, 48.2496014 ], [ -3.5400019, 48.2488949 ], [ -3.5408316, 48.2484246 ], [ -3.5409663, 48.2483774 ], [ -3.541138, 48.2482902 ], [ -3.5414702, 48.2480813 ], [ -3.5415621, 48.2480157 ], [ -3.5417355, 48.2477686 ], [ -3.5417807, 48.2473273 ], [ -3.541854, 48.2471562 ], [ -3.5418791, 48.2470095 ], [ -3.5418574, 48.2469439 ], [ -3.5418525, 48.2467527 ], [ -3.5417459, 48.2461556 ], [ -3.5415524, 48.245937 ], [ -3.5415075, 48.2458365 ], [ -3.5415085, 48.2457254 ], [ -3.5415315, 48.2455734 ], [ -3.5415789, 48.2454434 ], [ -3.5417067, 48.2451772 ], [ -3.541851, 48.2449462 ], [ -3.5419322, 48.2447512 ], [ -3.5419364, 48.2446652 ], [ -3.5418519, 48.2443774 ], [ -3.5418523, 48.2442717 ], [ -3.5419017, 48.2440171 ], [ -3.5417672, 48.2436417 ], [ -3.5417781, 48.2435445 ], [ -3.5418638, 48.2433529 ], [ -3.5421361, 48.243391 ], [ -3.5423689, 48.2433935 ], [ -3.5428624, 48.243481599999988 ], [ -3.543115, 48.2434911 ], [ -3.5436553, 48.2435641 ], [ -3.5449079, 48.2438756 ], [ -3.5453994, 48.2440235 ], [ -3.5458504, 48.2440851 ], [ -3.5462484, 48.2440793 ], [ -3.5493546, 48.2441768 ], [ -3.5493446, 48.244097 ], [ -3.5494301, 48.2437085 ], [ -3.5494853, 48.2432396 ], [ -3.5494665, 48.2428605 ], [ -3.5492992, 48.2422983 ], [ -3.5490549, 48.2418017 ], [ -3.5532334, 48.241947 ], [ -3.5540366, 48.242492 ], [ -3.5541667, 48.2424405 ], [ -3.5560032, 48.242036 ], [ -3.5555787, 48.2413517 ], [ -3.5549811, 48.2404604 ], [ -3.554455, 48.2396003 ], [ -3.5543526, 48.2393866 ], [ -3.553633, 48.237721 ], [ -3.5535506, 48.2374611 ], [ -3.5535039, 48.2372163 ], [ -3.5534929, 48.236379 ], [ -3.5532614, 48.2363323 ], [ -3.5530088, 48.2360186 ], [ -3.5524545, 48.2345407 ], [ -3.5529907, 48.2344296 ], [ -3.5529788, 48.234182 ], [ -3.5547233, 48.233909 ], [ -3.5558082, 48.2324745 ], [ -3.5564135, 48.231735699999987 ], [ -3.5571317, 48.2307748 ], [ -3.5574555, 48.2301853 ], [ -3.5578041, 48.2289696 ], [ -3.557865, 48.2286231 ], [ -3.5573485, 48.2285019 ], [ -3.5558097, 48.2282336 ], [ -3.5549502, 48.2280051 ], [ -3.5547081, 48.2279273 ], [ -3.5546147, 48.227882 ], [ -3.5546545, 48.2276919 ], [ -3.5550908, 48.2267684 ], [ -3.5557426, 48.2259692 ], [ -3.5563063, 48.2255804 ], [ -3.5570197, 48.2253195 ], [ -3.5574015, 48.2251195 ], [ -3.5571077, 48.2249092 ], [ -3.5569021, 48.2248746 ], [ -3.5557341, 48.2252935 ], [ -3.5551089, 48.2257309 ], [ -3.5530862, 48.2257422 ], [ -3.5534468, 48.2241457 ], [ -3.5534663, 48.2225222 ], [ -3.5533755, 48.222455 ], [ -3.5529882, 48.2223501 ], [ -3.5533828, 48.2218298 ], [ -3.5539293, 48.221813 ], [ -3.5540638, 48.2216348 ], [ -3.5541769, 48.2214362 ], [ -3.5541797, 48.2213395 ], [ -3.5542324, 48.2211767 ], [ -3.5540833, 48.2211615 ], [ -3.553908, 48.2211099 ], [ -3.5535427, 48.2209 ], [ -3.5531945, 48.220643 ], [ -3.5530356, 48.2205598 ], [ -3.5527981, 48.2204646 ], [ -3.5524552, 48.2202823 ], [ -3.552038, 48.220100599999988 ], [ -3.5518747, 48.2199607 ], [ -3.551796, 48.2198603 ], [ -3.5517084, 48.2197857 ], [ -3.5516253, 48.2197262 ], [ -3.5514687, 48.2196726 ], [ -3.5513439, 48.2195387 ], [ -3.5512531, 48.2193948 ], [ -3.5510436, 48.2194055 ], [ -3.5508588, 48.2191684 ], [ -3.5505474, 48.2189573 ], [ -3.5505453, 48.2189294 ], [ -3.5500501, 48.2186852 ], [ -3.5498688, 48.2184551 ], [ -3.5497501, 48.2179786 ], [ -3.5496834, 48.2178767 ], [ -3.5495404, 48.2177483 ], [ -3.5494583, 48.2177068 ], [ -3.5491738, 48.2176468 ], [ -3.5487016, 48.2176188 ], [ -3.5485344, 48.2175785 ], [ -3.5484789, 48.217512 ], [ -3.5484727, 48.217441 ], [ -3.5485384, 48.2169047 ], [ -3.5485194, 48.2168281 ], [ -3.5484283, 48.2167582 ], [ -3.5483007, 48.2167093 ], [ -3.5482325, 48.2166608 ], [ -3.5481865, 48.2165514 ], [ -3.548178, 48.2163749 ], [ -3.5480311, 48.2162801 ], [ -3.5480036, 48.2162329 ], [ -3.5480051, 48.2161578 ], [ -3.5478203, 48.215899 ], [ -3.5470949, 48.2152694 ], [ -3.5468506, 48.2151087 ], [ -3.5464718, 48.2149519 ], [ -3.5463572, 48.2148779 ], [ -3.5461523, 48.2146969 ], [ -3.545956, 48.2145526 ], [ -3.5457368, 48.2144194 ], [ -3.5455393, 48.2143301 ], [ -3.5450767, 48.214205899999989 ], [ -3.5447146, 48.2140644 ], [ -3.5445498, 48.2139661 ], [ -3.5444703, 48.213870299999989 ], [ -3.5443958, 48.2136948 ], [ -3.5438166, 48.2132845 ], [ -3.5436204, 48.2131184 ], [ -3.5435302, 48.2130232 ], [ -3.5434142, 48.2128509 ], [ -3.5433289, 48.2126642 ], [ -3.5432782, 48.212463 ], [ -3.5432643, 48.21209 ], [ -3.5432931, 48.2120396 ], [ -3.5435305, 48.211917199999988 ], [ -3.5435541, 48.211868 ], [ -3.5436152, 48.2112398 ], [ -3.5435961, 48.2109556 ], [ -3.54348, 48.2108582 ], [ -3.543342, 48.2108027 ], [ -3.5432904, 48.2107459 ], [ -3.5432685, 48.2106785 ], [ -3.5432741, 48.2103432 ], [ -3.5430413, 48.2101548 ], [ -3.5425767, 48.2102853 ], [ -3.5419697, 48.2104012 ], [ -3.5416023, 48.2101191 ], [ -3.5407188, 48.2095091 ], [ -3.5401584, 48.2088368 ], [ -3.5397864, 48.2082336 ], [ -3.540077, 48.2080071 ], [ -3.5401959, 48.2078659 ], [ -3.5398974, 48.2073877 ], [ -3.5397555, 48.2070823 ], [ -3.5397033, 48.2070211 ], [ -3.539562, 48.2067644 ], [ -3.539516, 48.2066225 ], [ -3.5394372, 48.2065528 ], [ -3.5388803, 48.2067896 ], [ -3.5387997, 48.2068581 ], [ -3.5385183, 48.2068331 ], [ -3.5376024, 48.2066799 ], [ -3.5373147, 48.2066037 ], [ -3.5372502, 48.2066173 ], [ -3.5368101, 48.2066299 ], [ -3.5358748, 48.2067233 ], [ -3.5355598, 48.206710099999988 ], [ -3.5352483, 48.206638 ], [ -3.5349023, 48.2065163 ], [ -3.5347184, 48.2063297 ], [ -3.5345871, 48.2057501 ], [ -3.5345046, 48.2056192 ], [ -3.5320897, 48.2057396 ], [ -3.5310787, 48.205745 ], [ -3.5298217, 48.2053569 ], [ -3.5293995, 48.2051979 ], [ -3.5266757, 48.2049732 ], [ -3.5255109, 48.2048057 ], [ -3.5232142, 48.2035686 ], [ -3.5230127, 48.2035779 ], [ -3.5226925, 48.2037293 ], [ -3.5220366, 48.2038974 ], [ -3.5207911, 48.2028377 ], [ -3.5209425, 48.2021405 ], [ -3.5209873, 48.2017055 ], [ -3.5208253, 48.2010084 ], [ -3.5208031, 48.2008183 ], [ -3.5208225, 48.2006583 ], [ -3.5208529, 48.2005771 ], [ -3.5211555, 48.2000539 ], [ -3.5212218, 48.199662 ], [ -3.5212852, 48.1994978 ], [ -3.5212743, 48.199028 ], [ -3.5212565, 48.198917 ], [ -3.5212153, 48.198857 ], [ -3.521257, 48.1988122 ], [ -3.5212648, 48.1987658 ], [ -3.5211941, 48.1981729 ] ] ] ] } }
]
}
