{"type":"FeatureCollection","features":[{"type":"Feature","geometry":{"type":"Point","coordinates":[7.494574931316285,47.60121141497259]},"properties":{"nom":"Ecole Primaire Jules Ferry","uai":"0681650Z","adresse":"12 rue du Général de Gaulle","commune":"68730"}},{"type":"Feature","geometry":{"type":"Point","coordinates":[7.718880256206758,48.5941689445405]},"properties":{"nom":"Ecole primaire Camille Hirtz","uai":"0670419S","adresse":"13 rue des Renards","commune":"67200"}},{"type":"Feature","geometry":{"type":"Point","coordinates":[7.748437618509558,48.586541671412704]},"properties":{"nom":"Ecole primaire Schoepflin","uai":"0670439N","adresse":"3 rue de l'Ecrevisse","commune":"67000"}},{"type":"Feature","geometry":{"type":"Point","coordinates":[7.271378947319279,47.738323895410765]},"properties":{"nom":"Ecole primaire Alfred Giess","uai":"0680918D","adresse":"5 rue Alfred Giess","commune":"68790"}},{"type":"Feature","geometry":{"type":"Point","coordinates":[7.346158134207802,48.07931067713038]},"properties":{"nom":"Ecole Primaire Louis Pasteur","uai":"0680189L","adresse":"17 rue Saint Joseph","commune":"68000"}},{"type":"Feature","geometry":{"type":"Point","coordinates":[7.344654346983148,47.74069034457229]},"properties":{"nom":"Ecole Elémentaire Célestin Freinet","uai":"0681308C","adresse":"16 rue de Bruebach","commune":"68100"}},{"type":"Feature","geometry":{"type":"Point","coordinates":[7.316159308803762,47.72071764689569]},"properties":{"nom":"Ecole Elémentaire Prévert et Besenval","uai":"0680853H","adresse":"12 rue de France","commune":"68350"}},{"type":"Feature","geometry":{"type":"Point","coordinates":[7.784594444121498,48.60079491312071]},"properties":{"nom":"Ecole primaire Robertsau","uai":"0670431E","adresse":"18 rue Adler","commune":"67000"}}]}